{
  "type": "FeatureCollection",
  "features": [
    {
      "type": "Feature",
      "properties": {
        "norad_id": 67059,
        "name": "HULIANWANG DIGUI-119",
        "group": "last-30-days",
        "lat": 5.43535632687989,
        "lon": 156.00506822195217,
        "alt_km": 808.3289641451393,
        "timestamp": "2025-12-20T05:41:48.745814+00:00",
        "meta_object_name": "HULIANWANG DIGUI-119",
        "meta_object_id": "2025-295A",
        "meta_epoch": "2025-12-17T11:16:29.850816",
        "meta_mean_motion": 14.25569756,
        "meta_eccentricity": 0.00138963,
        "meta_inclination": 50.007,
        "meta_ra_of_asc_node": 352.2731,
        "meta_arg_of_pericenter": 264.5159,
        "meta_mean_anomaly": 95.417,
        "meta_ephemeris_type": 0,
        "meta_classification_type": "U",
        "meta_norad_cat_id": 67059,
        "meta_element_set_no": 999,
        "meta_rev_at_epoch": 79,
        "meta_bstar": -9.003402e-06,
        "meta_mean_motion_dot": -1.82e-06,
        "meta_mean_motion_ddot": 0,
        "tle_line1": "1 67059U 25295A   25351.46978994 -.00000182  00000+0 -90034-5 0  9995",
        "tle_line2": "2 67059  50.0070 352.2731 0013896 264.5159  95.4170 14.25569756   795"
      },
      "geometry": {
        "type": "Point",
        "coordinates": [
          156.00506822195217,
          5.43535632687989
        ]
      }
    },
    {
      "type": "Feature",
      "properties": {
        "norad_id": 67060,
        "name": "HULIANWANG DIGUI-120",
        "group": "last-30-days",
        "lat": 2.337848023192473,
        "lon": 158.6130985647379,
        "alt_km": 807.3486606265824,
        "timestamp": "2025-12-20T05:41:48.745825+00:00",
        "meta_object_name": "HULIANWANG DIGUI-120",
        "meta_object_id": "2025-295B",
        "meta_epoch": "2025-12-15T17:12:24.401376",
        "meta_mean_motion": 14.25706335,
        "meta_eccentricity": 0.00132237,
        "meta_inclination": 50.005,
        "meta_ra_of_asc_node": 359.6709,
        "meta_arg_of_pericenter": 257.265,
        "meta_mean_anomaly": 102.6786,
        "meta_ephemeris_type": 0,
        "meta_classification_type": "U",
        "meta_norad_cat_id": 67060,
        "meta_element_set_no": 999,
        "meta_rev_at_epoch": 54,
        "meta_bstar": 6.6896441e-05,
        "meta_mean_motion_dot": 0,
        "meta_mean_motion_ddot": 0,
        "tle_line1": "1 67060U 25295B   25349.71694909  .00000000  00000+0  66896-4 0  9998",
        "tle_line2": "2 67060  50.0050 359.6709 0013223 257.2650 102.6786 14.25706335   543"
      },
      "geometry": {
        "type": "Point",
        "coordinates": [
          158.6130985647379,
          2.337848023192473
        ]
      }
    },
    {
      "type": "Feature",
      "properties": {
        "norad_id": 67061,
        "name": "HULIANWANG DIGUI-121",
        "group": "last-30-days",
        "lat": 1.954803139183418,
        "lon": 158.9224218252111,
        "alt_km": 807.0910833905145,
        "timestamp": "2025-12-20T05:41:48.745835+00:00",
        "meta_object_name": "HULIANWANG DIGUI-121",
        "meta_object_id": "2025-295C",
        "meta_epoch": "2025-12-15T17:12:22.292352",
        "meta_mean_motion": 14.25729079,
        "meta_eccentricity": 0.00132682,
        "meta_inclination": 50.0012,
        "meta_ra_of_asc_node": 359.6606,
        "meta_arg_of_pericenter": 256.3366,
        "meta_mean_anomaly": 103.6071,
        "meta_ephemeris_type": 0,
        "meta_classification_type": "U",
        "meta_norad_cat_id": 67061,
        "meta_element_set_no": 999,
        "meta_rev_at_epoch": 54,
        "meta_bstar": 6.6638352e-05,
        "meta_mean_motion_dot": -1e-08,
        "meta_mean_motion_ddot": 0,
        "tle_line1": "1 67061U 25295C   25349.71692468 -.00000001  00000+0  66638-4 0  9993",
        "tle_line2": "2 67061  50.0012 359.6606 0013268 256.3366 103.6071 14.25729079   549"
      },
      "geometry": {
        "type": "Point",
        "coordinates": [
          158.9224218252111,
          1.954803139183418
        ]
      }
    },
    {
      "type": "Feature",
      "properties": {
        "norad_id": 67062,
        "name": "HULIANWANG DIGUI-122",
        "group": "last-30-days",
        "lat": 1.2389766703787537,
        "lon": 159.53831170941777,
        "alt_km": 808.1697842757694,
        "timestamp": "2025-12-20T05:41:48.745845+00:00",
        "meta_object_name": "HULIANWANG DIGUI-122",
        "meta_object_id": "2025-295D",
        "meta_epoch": "2025-12-19T20:27:07.012800",
        "meta_mean_motion": 14.2575542,
        "meta_eccentricity": 0.00131672,
        "meta_inclination": 50.0054,
        "meta_ra_of_asc_node": 342.2058,
        "meta_arg_of_pericenter": 278.2929,
        "meta_mean_anomaly": 81.6492,
        "meta_ephemeris_type": 0,
        "meta_classification_type": "U",
        "meta_norad_cat_id": 67062,
        "meta_element_set_no": 999,
        "meta_rev_at_epoch": 113,
        "meta_bstar": 0.00011429874,
        "meta_mean_motion_dot": 1.13e-06,
        "meta_mean_motion_ddot": 0,
        "tle_line1": "1 67062U 25295D   25353.85216450  .00000113  00000+0  11430-3 0  9999",
        "tle_line2": "2 67062  50.0054 342.2058 0013167 278.2929  81.6492 14.25755420  1138"
      },
      "geometry": {
        "type": "Point",
        "coordinates": [
          159.53831170941777,
          1.2389766703787537
        ]
      }
    },
    {
      "type": "Feature",
      "properties": {
        "norad_id": 67063,
        "name": "HULIANWANG DIGUI-123",
        "group": "last-30-days",
        "lat": -1.7840046540741374,
        "lon": 162.0720564004499,
        "alt_km": 807.2852537388399,
        "timestamp": "2025-12-20T05:41:48.745856+00:00",
        "meta_object_name": "HULIANWANG DIGUI-123",
        "meta_object_id": "2025-295E",
        "meta_epoch": "2025-12-19T20:26:03.951168",
        "meta_mean_motion": 14.2588823,
        "meta_eccentricity": 0.0012482,
        "meta_inclination": 50.0061,
        "meta_ra_of_asc_node": 342.2044,
        "meta_arg_of_pericenter": 277.4772,
        "meta_mean_anomaly": 82.4723,
        "meta_ephemeris_type": 0,
        "meta_classification_type": "U",
        "meta_norad_cat_id": 67063,
        "meta_element_set_no": 999,
        "meta_rev_at_epoch": 113,
        "meta_bstar": 0.00011172036,
        "meta_mean_motion_dot": 1.08e-06,
        "meta_mean_motion_ddot": 0,
        "tle_line1": "1 67063U 25295E   25353.85143462  .00000108  00000+0  11172-3 0  9999",
        "tle_line2": "2 67063  50.0061 342.2044 0012482 277.4772  82.4723 14.25888230  1130"
      },
      "geometry": {
        "type": "Point",
        "coordinates": [
          162.0720564004499,
          -1.7840046540741374
        ]
      }
    },
    {
      "type": "Feature",
      "properties": {
        "norad_id": 67064,
        "name": "HULIANWANG DIGUI-124",
        "group": "last-30-days",
        "lat": -3.166146967932337,
        "lon": 163.21873924778117,
        "alt_km": 806.1470386429755,
        "timestamp": "2025-12-20T05:41:48.745868+00:00",
        "meta_object_name": "HULIANWANG DIGUI-124",
        "meta_object_id": "2025-295F",
        "meta_epoch": "2025-12-19T22:06:30.122208",
        "meta_mean_motion": 14.2594943,
        "meta_eccentricity": 0.00120932,
        "meta_inclination": 50.0035,
        "meta_ra_of_asc_node": 341.8931,
        "meta_arg_of_pericenter": 272.4121,
        "meta_mean_anomaly": 87.5408,
        "meta_ephemeris_type": 0,
        "meta_classification_type": "U",
        "meta_norad_cat_id": 67064,
        "meta_element_set_no": 999,
        "meta_rev_at_epoch": 114,
        "meta_bstar": -0.00018929931,
        "meta_mean_motion_dot": -6.15e-06,
        "meta_mean_motion_ddot": 0,
        "tle_line1": "1 67064U 25295F   25353.92118197 -.00000615  00000+0 -18930-3 0  9999",
        "tle_line2": "2 67064  50.0035 341.8931 0012093 272.4121  87.5408 14.25949430  1140"
      },
      "geometry": {
        "type": "Point",
        "coordinates": [
          163.21873924778117,
          -3.166146967932337
        ]
      }
    },
    {
      "type": "Feature",
      "properties": {
        "norad_id": 67065,
        "name": "HULIANWANG DIGUI-125",
        "group": "last-30-days",
        "lat": -3.268332126111207,
        "lon": 163.3032433826848,
        "alt_km": 807.034194343757,
        "timestamp": "2025-12-20T05:41:48.745879+00:00",
        "meta_object_name": "HULIANWANG DIGUI-125",
        "meta_object_id": "2025-295G",
        "meta_epoch": "2025-12-19T22:06:27.929376",
        "meta_mean_motion": 14.25953933,
        "meta_eccentricity": 0.0012279,
        "meta_inclination": 50.0011,
        "meta_ra_of_asc_node": 341.8914,
        "meta_arg_of_pericenter": 278.3527,
        "meta_mean_anomaly": 81.5995,
        "meta_ephemeris_type": 0,
        "meta_classification_type": "U",
        "meta_norad_cat_id": 67065,
        "meta_element_set_no": 999,
        "meta_rev_at_epoch": 114,
        "meta_bstar": 0.00010597642,
        "meta_mean_motion_dot": 9.4e-07,
        "meta_mean_motion_ddot": 0,
        "tle_line1": "1 67065U 25295G   25353.92115659  .00000094  00000+0  10598-3 0  9991",
        "tle_line2": "2 67065  50.0011 341.8914 0012279 278.3527  81.5995 14.25953933  1145"
      },
      "geometry": {
        "type": "Point",
        "coordinates": [
          163.3032433826848,
          -3.268332126111207
        ]
      }
    }
  ]
}